[{"OBJECT_NAME":"IRIDIUM 33 DEB","OBJECT_ID":"1997-051MQ","EPOCH":"2026-03-13T20:08:15.050112","MEAN_MOTION":14.78519763,"ECCENTRICITY":0.00149007,"INCLINATION":86.3057,"RA_OF_ASC_NODE":272.2835,"ARG_OF_PERICENTER":232.0173,"MEAN_ANOMALY":139.807,"EPHEMERIS_TYPE":0,"CLASSIFICATION_TYPE":"U","NORAD_CAT_ID":34870,"ELEMENT_SET_NO":999,"REV_AT_EPOCH":90256,"BSTAR":0.0013949965,"MEAN_MOTION_DOT":0.00010234,"MEAN_MOTION_DDOT":0},{"OBJECT_NAME":"IRIDIUM 33 DEB","OBJECT_ID":"1997-051MY","EPOCH":"2026-03-14T20:58:28.928352","MEAN_MOTION":14.67335517,"ECCENTRICITY":0.00235958,"INCLINATION":86.3252,"RA_OF_ASC_NODE":285.3337,"ARG_OF_PERICENTER":262.6681,"MEAN_ANOMALY":110.9745,"EPHEMERIS_TYPE":0,"CLASSIFICATION_TYPE":"U","NORAD_CAT_ID":34896,"ELEMENT_SET_NO":999,"REV_AT_EPOCH":88970,"BSTAR":0.00088209305,"MEAN_MOTION_DOT":5.022e-5,"MEAN_MOTION_DDOT":0},{"OBJECT_NAME":"IRIDIUM 33 DEB","OBJECT_ID":"1997-051NF","EPOCH":"2026-03-14T15:58:20.806176","MEAN_MOTION":14.5937954,"ECCENTRICITY":0.00777024,"INCLINATION":86.1332,"RA_OF_ASC_NODE":325.4891,"ARG_OF_PERICENTER":345.4676,"MEAN_ANOMALY":43.5609,"EPHEMERIS_TYPE":0,"CLASSIFICATION_TYPE":"U","NORAD_CAT_ID":34926,"ELEMENT_SET_NO":999,"REV_AT_EPOCH":87795,"BSTAR":0.0062362938,"MEAN_MOTION_DOT":0.0003091,"MEAN_MOTION_DDOT":0},{"OBJECT_NAME":"IRIDIUM 33 DEB","OBJECT_ID":"1997-051NR","EPOCH":"2026-03-14T19:26:12.437952","MEAN_MOTION":14.42501265,"ECCENTRICITY":0.0019038,"INCLINATION":86.3735,"RA_OF_ASC_NODE":17.5803,"ARG_OF_PERICENTER":284.0386,"MEAN_ANOMALY":105.2975,"EPHEMERIS_TYPE":0,"CLASSIFICATION_TYPE":"U","NORAD_CAT_ID":34985,"ELEMENT_SET_NO":999,"REV_AT_EPOCH":88502,"BSTAR":0.00086955679,"MEAN_MOTION_DOT":2.906e-5,"MEAN_MOTION_DDOT":0},{"OBJECT_NAME":"IRIDIUM 33 DEB","OBJECT_ID":"1997-051NX","EPOCH":"2026-03-08T04:06:58.448448","MEAN_MOTION":14.48101451,"ECCENTRICITY":0.00085649,"INCLINATION":86.3274,"RA_OF_ASC_NODE":331.6303,"ARG_OF_PERICENTER":149.501,"MEAN_ANOMALY":210.6693,"EPHEMERIS_TYPE":0,"CLASSIFICATION_TYPE":"U","NORAD_CAT_ID":35051,"ELEMENT_SET_NO":999,"REV_AT_EPOCH":88232,"BSTAR":0.00082973634,"MEAN_MOTION_DOT":3.107e-5,"MEAN_MOTION_DDOT":0},{"OBJECT_NAME":"IRIDIUM 33 DEB","OBJECT_ID":"1997-051NY","EPOCH":"2026-03-14T11:12:44.503200","MEAN_MOTION":14.38634255,"ECCENTRICITY":0.0012767,"INCLINATION":86.3356,"RA_OF_ASC_NODE":341.1682,"ARG_OF_PERICENTER":134.0562,"MEAN_ANOMALY":226.169,"EPHEMERIS_TYPE":0,"CLASSIFICATION_TYPE":"U","NORAD_CAT_ID":35052,"ELEMENT_SET_NO":999,"REV_AT_EPOCH":88594,"BSTAR":0.00019760082,"MEAN_MOTION_DOT":6.25e-6,"MEAN_MOTION_DDOT":0},{"OBJECT_NAME":"IRIDIUM 33 DEB","OBJECT_ID":"1997-051PF","EPOCH":"2026-03-15T02:09:40.262976","MEAN_MOTION":15.05647439,"ECCENTRICITY":0.00321145,"INCLINATION":86.2096,"RA_OF_ASC_NODE":7.6686,"ARG_OF_PERICENTER":190.9703,"MEAN_ANOMALY":169.0836,"EPHEMERIS_TYPE":0,"CLASSIFICATION_TYPE":"U","NORAD_CAT_ID":35080,"ELEMENT_SET_NO":999,"REV_AT_EPOCH":71067,"BSTAR":0.0086670834,"MEAN_MOTION_DOT":0.00128595,"MEAN_MOTION_DDOT":0},{"OBJECT_NAME":"IRIDIUM 33 DEB","OBJECT_ID":"1997-051PM","EPOCH":"2026-03-13T03:39:03.551616","MEAN_MOTION":14.45633446,"ECCENTRICITY":0.00143837,"INCLINATION":86.3888,"RA_OF_ASC_NODE":24.1447,"ARG_OF_PERICENTER":196.3803,"MEAN_ANOMALY":163.6937,"EPHEMERIS_TYPE":0,"CLASSIFICATION_TYPE":"U","NORAD_CAT_ID":35297,"ELEMENT_SET_NO":999,"REV_AT_EPOCH":71732,"BSTAR":0.00068458517,"MEAN_MOTION_DOT":2.441e-5,"MEAN_MOTION_DDOT":0},{"OBJECT_NAME":"IRIDIUM 33 DEB","OBJECT_ID":"1997-051PP","EPOCH":"2026-03-14T17:57:46.527552","MEAN_MOTION":14.41725454,"ECCENTRICITY":0.00550827,"INCLINATION":86.2919,"RA_OF_ASC_NODE":353.113,"ARG_OF_PERICENTER":156.0402,"MEAN_ANOMALY":234.0757,"EPHEMERIS_TYPE":0,"CLASSIFICATION_TYPE":"U","NORAD_CAT_ID":35299,"ELEMENT_SET_NO":999,"REV_AT_EPOCH":87656,"BSTAR":0.0014597629,"MEAN_MOTION_DOT":4.867e-5,"MEAN_MOTION_DDOT":0},{"OBJECT_NAME":"IRIDIUM 33 DEB","OBJECT_ID":"1997-051QA","EPOCH":"2026-03-14T17:16:20.302752","MEAN_MOTION":14.50317487,"ECCENTRICITY":0.00141599,"INCLINATION":86.3614,"RA_OF_ASC_NODE":345.0345,"ARG_OF_PERICENTER":148.2249,"MEAN_ANOMALY":211.9813,"EPHEMERIS_TYPE":0,"CLASSIFICATION_TYPE":"U","NORAD_CAT_ID":35480,"ELEMENT_SET_NO":999,"REV_AT_EPOCH":88364,"BSTAR":0.00069719988,"MEAN_MOTION_DOT":2.74e-5,"MEAN_MOTION_DDOT":0},{"OBJECT_NAME":"IRIDIUM 33 DEB","OBJECT_ID":"1997-051QE","EPOCH":"2026-03-11T09:10:37.860960","MEAN_MOTION":15.07676082,"ECCENTRICITY":0.00139607,"INCLINATION":86.3516,"RA_OF_ASC_NODE":310.9801,"ARG_OF_PERICENTER":156.7141,"MEAN_ANOMALY":203.4731,"EPHEMERIS_TYPE":0,"CLASSIFICATION_TYPE":"U","NORAD_CAT_ID":35484,"ELEMENT_SET_NO":999,"REV_AT_EPOCH":63347,"BSTAR":0.0030875216,"MEAN_MOTION_DOT":0.0004744,"MEAN_MOTION_DDOT":0},{"OBJECT_NAME":"IRIDIUM 33 DEB","OBJECT_ID":"1997-051QJ","EPOCH":"2026-03-15T05:47:06.326880","MEAN_MOTION":14.85472906,"ECCENTRICITY":0.00271238,"INCLINATION":86.3196,"RA_OF_ASC_NODE":258.1349,"ARG_OF_PERICENTER":72.9485,"MEAN_ANOMALY":287.4708,"EPHEMERIS_TYPE":0,"CLASSIFICATION_TYPE":"U","NORAD_CAT_ID":35488,"ELEMENT_SET_NO":999,"REV_AT_EPOCH":89638,"BSTAR":0.0013825384,"MEAN_MOTION_DOT":0.00012038,"MEAN_MOTION_DDOT":0},{"OBJECT_NAME":"IRIDIUM 33 DEB","OBJECT_ID":"1997-051QN","EPOCH":"2026-03-14T14:18:14.229792","MEAN_MOTION":14.84900796,"ECCENTRICITY":0.00072755,"INCLINATION":86.3523,"RA_OF_ASC_NODE":303.7426,"ARG_OF_PERICENTER":207.8537,"MEAN_ANOMALY":152.2298,"EPHEMERIS_TYPE":0,"CLASSIFICATION_TYPE":"U","NORAD_CAT_ID":35616,"ELEMENT_SET_NO":999,"REV_AT_EPOCH":88936,"BSTAR":0.0020175547,"MEAN_MOTION_DOT":0.00017218,"MEAN_MOTION_DDOT":0},{"OBJECT_NAME":"IRIDIUM 33 DEB","OBJECT_ID":"1997-051QQ","EPOCH":"2026-03-14T22:28:15.896640","MEAN_MOTION":14.52755389,"ECCENTRICITY":0.00305864,"INCLINATION":86.3397,"RA_OF_ASC_NODE":313.19,"ARG_OF_PERICENTER":69.3421,"MEAN_ANOMALY":291.106,"EPHEMERIS_TYPE":0,"CLASSIFICATION_TYPE":"U","NORAD_CAT_ID":35618,"ELEMENT_SET_NO":999,"REV_AT_EPOCH":66732,"BSTAR":0.00042975113,"MEAN_MOTION_DOT":1.795e-5,"MEAN_MOTION_DDOT":0},{"OBJECT_NAME":"IRIDIUM 33 DEB","OBJECT_ID":"1997-051QS","EPOCH":"2026-03-14T17:27:20.719296","MEAN_MOTION":14.4072756,"ECCENTRICITY":0.01302092,"INCLINATION":86.3906,"RA_OF_ASC_NODE":178.5985,"ARG_OF_PERICENTER":313.9451,"MEAN_ANOMALY":45.1062,"EPHEMERIS_TYPE":0,"CLASSIFICATION_TYPE":"U","NORAD_CAT_ID":35620,"ELEMENT_SET_NO":999,"REV_AT_EPOCH":61289,"BSTAR":0.0030867111,"MEAN_MOTION_DOT":0.00010934,"MEAN_MOTION_DDOT":0},{"OBJECT_NAME":"IRIDIUM 33 DEB","OBJECT_ID":"1997-051QU","EPOCH":"2026-03-15T03:37:33.328416","MEAN_MOTION":15.1477674,"ECCENTRICITY":0.00071473,"INCLINATION":86.1924,"RA_OF_ASC_NODE":217.635,"ARG_OF_PERICENTER":275.4754,"MEAN_ANOMALY":208.6113,"EPHEMERIS_TYPE":0,"CLASSIFICATION_TYPE":"U","NORAD_CAT_ID":35622,"ELEMENT_SET_NO":999,"REV_AT_EPOCH":88754,"BSTAR":0.002661167,"MEAN_MOTION_DOT":0.00049677,"MEAN_MOTION_DDOT":0}]
