IRIDIUM 33 DEB          
1 34870U 97051MQ  26072.83906308  .00010234  00000+0  13950-2 0  9997
2 34870  86.3057 272.2835 0014900 232.0173 139.8070 14.78519763902565
IRIDIUM 33 DEB          
1 34896U 97051MY  26073.87394593  .00005022  00000+0  88209-3 0  9996
2 34896  86.3252 285.3337 0023595 262.6681 110.9745 14.67335517889705
IRIDIUM 33 DEB          
1 34926U 97051NF  26073.66551859  .00030910  00000+0  62363-2 0  9993
2 34926  86.1332 325.4891 0077702 345.4676  43.5609 14.59379540877959
IRIDIUM 33 DEB          
1 34985U 97051NR  26073.80986618  .00002906  00000+0  86956-3 0  9998
2 34985  86.3735  17.5803 0019038 284.0386 105.2975 14.42501265885021
IRIDIUM 33 DEB          
1 35051U 97051NX  26067.17150982  .00003107  00000+0  82974-3 0  9993
2 35051  86.3274 331.6303 0008564 149.5010 210.6693 14.48101451882327
IRIDIUM 33 DEB          
1 35052U 97051NY  26073.46718175  .00000625  00000+0  19760-3 0  9992
2 35052  86.3356 341.1682 0012767 134.0562 226.1690 14.38634255885948
IRIDIUM 33 DEB          
1 35080U 97051PF  26074.09004934  .00128595  00000+0  86671-2 0  9995
2 35080  86.2096   7.6686 0032114 190.9703 169.0836 15.05647439710670
IRIDIUM 33 DEB          
1 35297U 97051PM  26072.15212444  .00002441  00000+0  68459-3 0  9993
2 35297  86.3888  24.1447 0014383 196.3803 163.6937 14.45633446717325
IRIDIUM 33 DEB          
1 35299U 97051PP  26073.74845518  .00004867  00000+0  14598-2 0  9993
2 35299  86.2919 353.1130 0055082 156.0402 234.0757 14.41725454876566
IRIDIUM 33 DEB          
1 35480U 97051QA  26073.71967943  .00002740  00000+0  69720-3 0  9995
2 35480  86.3614 345.0345 0014159 148.2249 211.9813 14.50317487883648
IRIDIUM 33 DEB          
1 35484U 97051QE  26070.38238265  .00047440  00000+0  30875-2 0  9991
2 35484  86.3516 310.9801 0013960 156.7141 203.4731 15.07676082633476
IRIDIUM 33 DEB          
1 35488U 97051QJ  26074.24104545  .00012038  00000+0  13825-2 0  9998
2 35488  86.3196 258.1349 0027123  72.9485 287.4708 14.85472906896381
IRIDIUM 33 DEB          
1 35616U 97051QN  26073.59599803  .00017218  00000+0  20176-2 0  9995
2 35616  86.3523 303.7426 0007275 207.8537 152.2298 14.84900796889369
IRIDIUM 33 DEB          
1 35618U 97051QQ  26073.93629510  .00001795  00000+0  42975-3 0  9999
2 35618  86.3397 313.1900 0030586  69.3421 291.1060 14.52755389667327
IRIDIUM 33 DEB          
1 35620U 97051QS  26073.72732314  .00010934  00000+0  30867-2 0  9997
2 35620  86.3906 178.5985 0130209 313.9451  45.1062 14.40727560612894
IRIDIUM 33 DEB          
1 35622U 97051QU  26074.15108019  .00049677  00000+0  26612-2 0  9995
2 35622  86.1924 217.6350 0007147 275.4754 208.6113 15.14776740887542
